MALLIGYONG-1            
1 58400U 23179A   24032.16247841  .00006345  00000+0  27855-3 0  9990
2 58400  97.4227 281.0057 0016747  32.5686 327.6580 15.22167746 10887
